[{"OBJECT_NAME":"ONEWEB-0326","OBJECT_ID":"2021-083K","EPOCH":"2025-11-20T04:33:50.104800","MEAN_MOTION":13.18685726,"ECCENTRICITY":0.00015855,"INCLINATION":87.9208,"RA_OF_ASC_NODE":16.9649,"ARG_OF_PERICENTER":107.1315,"MEAN_ANOMALY":252.9991,"EPHEMERIS_TYPE":0,"CLASSIFICATION_TYPE":"U","NORAD_CAT_ID":49195,"ELEMENT_SET_NO":999,"REV_AT_EPOCH":20245,"BSTAR":-0.00068866783,"MEAN_MOTION_DOT":-2.59e-6,"MEAN_MOTION_DDOT":0},{"OBJECT_NAME":"ONEWEB-0327","OBJECT_ID":"2021-083L","EPOCH":"2025-11-20T04:33:26.118432","MEAN_MOTION":13.18688874,"ECCENTRICITY":0.0001668,"INCLINATION":87.9199,"RA_OF_ASC_NODE":16.9862,"ARG_OF_PERICENTER":110.4467,"MEAN_ANOMALY":249.6844,"EPHEMERIS_TYPE":0,"CLASSIFICATION_TYPE":"U","NORAD_CAT_ID":49196,"ELEMENT_SET_NO":999,"REV_AT_EPOCH":20247,"BSTAR":-1.0328988e-5,"MEAN_MOTION_DOT":9.0e-8,"MEAN_MOTION_DDOT":0},{"OBJECT_NAME":"ONEWEB-0328","OBJECT_ID":"2021-083M","EPOCH":"2025-11-20T04:33:45.155808","MEAN_MOTION":13.1346902,"ECCENTRICITY":0.00017512,"INCLINATION":87.901,"RA_OF_ASC_NODE":1.7422,"ARG_OF_PERICENTER":92.2371,"MEAN_ANOMALY":267.8959,"EPHEMERIS_TYPE":0,"CLASSIFICATION_TYPE":"U","NORAD_CAT_ID":49197,"ELEMENT_SET_NO":999,"REV_AT_EPOCH":20346,"BSTAR":0.00047361976,"MEAN_MOTION_DOT":1.86e-6,"MEAN_MOTION_DDOT":0},{"OBJECT_NAME":"ONEWEB-0331","OBJECT_ID":"2021-083N","EPOCH":"2025-11-20T04:24:08.545536","MEAN_MOTION":13.18688703,"ECCENTRICITY":0.00014604,"INCLINATION":87.9208,"RA_OF_ASC_NODE":16.959,"ARG_OF_PERICENTER":100.33,"MEAN_ANOMALY":259.7997,"EPHEMERIS_TYPE":0,"CLASSIFICATION_TYPE":"U","NORAD_CAT_ID":49198,"ELEMENT_SET_NO":999,"REV_AT_EPOCH":20246,"BSTAR":0.00016103386,"MEAN_MOTION_DOT":7.6e-7,"MEAN_MOTION_DDOT":0},{"OBJECT_NAME":"ONEWEB-0333","OBJECT_ID":"2021-083P","EPOCH":"2025-11-20T04:26:26.557440","MEAN_MOTION":13.13469202,"ECCENTRICITY":0.00018575,"INCLINATION":87.8989,"RA_OF_ASC_NODE":1.7999,"ARG_OF_PERICENTER":98.5045,"MEAN_ANOMALY":261.6294,"EPHEMERIS_TYPE":0,"CLASSIFICATION_TYPE":"U","NORAD_CAT_ID":49199,"ELEMENT_SET_NO":999,"REV_AT_EPOCH":20347,"BSTAR":0.00087252716,"MEAN_MOTION_DOT":3.31e-6,"MEAN_MOTION_DDOT":0},{"OBJECT_NAME":"ONEWEB-0334","OBJECT_ID":"2021-083Q","EPOCH":"2025-11-20T06:44:43.082880","MEAN_MOTION":13.20783959,"ECCENTRICITY":0.00031333,"INCLINATION":87.9183,"RA_OF_ASC_NODE":316.1253,"ARG_OF_PERICENTER":95.1252,"MEAN_ANOMALY":265.0239,"EPHEMERIS_TYPE":0,"CLASSIFICATION_TYPE":"U","NORAD_CAT_ID":49200,"ELEMENT_SET_NO":999,"REV_AT_EPOCH":20921,"BSTAR":0.0030857248,"MEAN_MOTION_DOT":1.268e-5,"MEAN_MOTION_DDOT":0},{"OBJECT_NAME":"ONEWEB-0335","OBJECT_ID":"2021-083R","EPOCH":"2025-11-20T04:19:07.767264","MEAN_MOTION":13.13469859,"ECCENTRICITY":0.00016155,"INCLINATION":87.899,"RA_OF_ASC_NODE":1.789,"ARG_OF_PERICENTER":97.8977,"MEAN_ANOMALY":262.2335,"EPHEMERIS_TYPE":0,"CLASSIFICATION_TYPE":"U","NORAD_CAT_ID":49201,"ELEMENT_SET_NO":999,"REV_AT_EPOCH":20348,"BSTAR":0.0010349631,"MEAN_MOTION_DOT":3.91e-6,"MEAN_MOTION_DDOT":0},{"OBJECT_NAME":"ONEWEB-0336","OBJECT_ID":"2021-083S","EPOCH":"2025-11-20T03:37:40.521216","MEAN_MOTION":13.13469711,"ECCENTRICITY":0.00013872,"INCLINATION":87.8996,"RA_OF_ASC_NODE":1.7901,"ARG_OF_PERICENTER":95.5272,"MEAN_ANOMALY":264.6015,"EPHEMERIS_TYPE":0,"CLASSIFICATION_TYPE":"U","NORAD_CAT_ID":49202,"ELEMENT_SET_NO":999,"REV_AT_EPOCH":20347,"BSTAR":-0.00031685904,"MEAN_MOTION_DOT":-1.03e-6,"MEAN_MOTION_DDOT":0},{"OBJECT_NAME":"ONEWEB-0337","OBJECT_ID":"2021-083T","EPOCH":"2025-11-20T03:52:06.194784","MEAN_MOTION":13.13469651,"ECCENTRICITY":0.00017099,"INCLINATION":87.8999,"RA_OF_ASC_NODE":1.7989,"ARG_OF_PERICENTER":90.9208,"MEAN_ANOMALY":269.2117,"EPHEMERIS_TYPE":0,"CLASSIFICATION_TYPE":"U","NORAD_CAT_ID":49203,"ELEMENT_SET_NO":999,"REV_AT_EPOCH":20347,"BSTAR":0.00052134969,"MEAN_MOTION_DOT":2.03e-6,"MEAN_MOTION_DDOT":0},{"OBJECT_NAME":"ONEWEB-0338","OBJECT_ID":"2021-083U","EPOCH":"2025-11-20T06:08:22.952544","MEAN_MOTION":13.20771545,"ECCENTRICITY":0.0002141,"INCLINATION":87.9176,"RA_OF_ASC_NODE":316.1324,"ARG_OF_PERICENTER":89.0742,"MEAN_ANOMALY":271.0636,"EPHEMERIS_TYPE":0,"CLASSIFICATION_TYPE":"U","NORAD_CAT_ID":49204,"ELEMENT_SET_NO":999,"REV_AT_EPOCH":20923,"BSTAR":0.00034673165,"MEAN_MOTION_DOT":1.54e-6,"MEAN_MOTION_DDOT":0},{"OBJECT_NAME":"ONEWEB-0339","OBJECT_ID":"2021-083V","EPOCH":"2025-11-20T04:04:30.202464","MEAN_MOTION":13.13469477,"ECCENTRICITY":0.00019395,"INCLINATION":87.8998,"RA_OF_ASC_NODE":1.7791,"ARG_OF_PERICENTER":92.4123,"MEAN_ANOMALY":267.7228,"EPHEMERIS_TYPE":0,"CLASSIFICATION_TYPE":"U","NORAD_CAT_ID":49205,"ELEMENT_SET_NO":999,"REV_AT_EPOCH":20345,"BSTAR":0.00074772793,"MEAN_MOTION_DOT":2.86e-6,"MEAN_MOTION_DDOT":0},{"OBJECT_NAME":"ONEWEB-0340","OBJECT_ID":"2021-083W","EPOCH":"2025-11-20T04:05:08.341152","MEAN_MOTION":13.18684425,"ECCENTRICITY":0.0001765,"INCLINATION":87.921,"RA_OF_ASC_NODE":16.9662,"ARG_OF_PERICENTER":99.8188,"MEAN_ANOMALY":260.3144,"EPHEMERIS_TYPE":0,"CLASSIFICATION_TYPE":"U","NORAD_CAT_ID":49206,"ELEMENT_SET_NO":999,"REV_AT_EPOCH":20242,"BSTAR":0.00016969674,"MEAN_MOTION_DOT":8.0e-7,"MEAN_MOTION_DDOT":0},{"OBJECT_NAME":"ONEWEB-0341","OBJECT_ID":"2021-083X","EPOCH":"2025-11-20T04:14:38.286528","MEAN_MOTION":13.18683842,"ECCENTRICITY":0.00017147,"INCLINATION":87.9207,"RA_OF_ASC_NODE":16.9765,"ARG_OF_PERICENTER":81.2348,"MEAN_ANOMALY":278.8978,"EPHEMERIS_TYPE":0,"CLASSIFICATION_TYPE":"U","NORAD_CAT_ID":49207,"ELEMENT_SET_NO":999,"REV_AT_EPOCH":20244,"BSTAR":0.0001623508,"MEAN_MOTION_DOT":7.7e-7,"MEAN_MOTION_DDOT":0},{"OBJECT_NAME":"ONEWEB-0342","OBJECT_ID":"2021-083Y","EPOCH":"2025-11-20T00:50:10.685760","MEAN_MOTION":13.2077335,"ECCENTRICITY":0.00019697,"INCLINATION":87.9186,"RA_OF_ASC_NODE":316.1462,"ARG_OF_PERICENTER":88.4413,"MEAN_ANOMALY":271.6946,"EPHEMERIS_TYPE":0,"CLASSIFICATION_TYPE":"U","NORAD_CAT_ID":49208,"ELEMENT_SET_NO":999,"REV_AT_EPOCH":20917,"BSTAR":-9.2490901e-5,"MEAN_MOTION_DOT":-2.5e-7,"MEAN_MOTION_DDOT":0},{"OBJECT_NAME":"ONEWEB-0343","OBJECT_ID":"2021-083Z","EPOCH":"2025-11-20T04:26:32.248608","MEAN_MOTION":13.18687416,"ECCENTRICITY":0.00021008,"INCLINATION":87.9211,"RA_OF_ASC_NODE":16.967,"ARG_OF_PERICENTER":84.0465,"MEAN_ANOMALY":276.0907,"EPHEMERIS_TYPE":0,"CLASSIFICATION_TYPE":"U","NORAD_CAT_ID":49209,"ELEMENT_SET_NO":999,"REV_AT_EPOCH":20249,"BSTAR":0.00022741829,"MEAN_MOTION_DOT":1.03e-6,"MEAN_MOTION_DDOT":0},{"OBJECT_NAME":"ONEWEB-0344","OBJECT_ID":"2021-083AA","EPOCH":"2025-11-20T03:57:11.011392","MEAN_MOTION":13.13470049,"ECCENTRICITY":0.0001646,"INCLINATION":87.8988,"RA_OF_ASC_NODE":1.8137,"ARG_OF_PERICENTER":84.9039,"MEAN_ANOMALY":275.2278,"EPHEMERIS_TYPE":0,"CLASSIFICATION_TYPE":"U","NORAD_CAT_ID":49210,"ELEMENT_SET_NO":999,"REV_AT_EPOCH":20345,"BSTAR":0.00042361652,"MEAN_MOTION_DOT":1.67e-6,"MEAN_MOTION_DDOT":0},{"OBJECT_NAME":"ONEWEB-0345","OBJECT_ID":"2021-083AB","EPOCH":"2025-11-20T03:45:00.095904","MEAN_MOTION":13.13471204,"ECCENTRICITY":0.00017936,"INCLINATION":87.8998,"RA_OF_ASC_NODE":1.7731,"ARG_OF_PERICENTER":81.9384,"MEAN_ANOMALY":278.1949,"EPHEMERIS_TYPE":0,"CLASSIFICATION_TYPE":"U","NORAD_CAT_ID":49211,"ELEMENT_SET_NO":999,"REV_AT_EPOCH":20346,"BSTAR":0.00028547236,"MEAN_MOTION_DOT":1.17e-6,"MEAN_MOTION_DDOT":0}]
