ONEWEB-0326             
1 49195U 21083K   25324.19016325 -.00000259  00000+0 -68867-3 0  9990
2 49195  87.9208  16.9649 0001585 107.1315 252.9991 13.18685726202453
ONEWEB-0327             
1 49196U 21083L   25324.18988563  .00000009  00000+0 -10329-4 0  9995
2 49196  87.9199  16.9862 0001668 110.4467 249.6844 13.18688874202476
ONEWEB-0328             
1 49197U 21083M   25324.19010597  .00000186  00000+0  47362-3 0  9991
2 49197  87.9010   1.7422 0001751  92.2371 267.8959 13.13469020203461
ONEWEB-0331             
1 49198U 21083N   25324.18343224  .00000076  00000+0  16103-3 0  9994
2 49198  87.9208  16.9590 0001460 100.3300 259.7997 13.18688703202462
ONEWEB-0333             
1 49199U 21083P   25324.18502960  .00000331  00000+0  87253-3 0  9997
2 49199  87.8989   1.7999 0001857  98.5045 261.6294 13.13469202203477
ONEWEB-0334             
1 49200U 21083Q   25324.28105420  .00001268  00000+0  30857-2 0  9998
2 49200  87.9183 316.1253 0003133  95.1252 265.0239 13.20783959209216
ONEWEB-0335             
1 49201U 21083R   25324.17995101  .00000391  00000+0  10350-2 0  9992
2 49201  87.8990   1.7890 0001615  97.8977 262.2335 13.13469859203483
ONEWEB-0336             
1 49202U 21083S   25324.15116344 -.00000103  00000+0 -31686-3 0  9994
2 49202  87.8996   1.7901 0001387  95.5272 264.6015 13.13469711203479
ONEWEB-0337             
1 49203U 21083T   25324.16118281  .00000203  00000+0  52135-3 0  9999
2 49203  87.8999   1.7989 0001709  90.9208 269.2117 13.13469651203472
ONEWEB-0338             
1 49204U 21083U   25324.25582121  .00000154  00000+0  34673-3 0  9990
2 49204  87.9176 316.1324 0002141  89.0742 271.0636 13.20771545209233
ONEWEB-0339             
1 49205U 21083V   25324.16979401  .00000286  00000+0  74773-3 0  9993
2 49205  87.8998   1.7791 0001939  92.4123 267.7228 13.13469477203452
ONEWEB-0340             
1 49206U 21083W   25324.17023543  .00000080  00000+0  16970-3 0  9999
2 49206  87.9210  16.9662 0001765  99.8188 260.3144 13.18684425202424
ONEWEB-0341             
1 49207U 21083X   25324.17683202  .00000077  00000+0  16235-3 0  9994
2 49207  87.9207  16.9765 0001714  81.2348 278.8978 13.18683842202445
ONEWEB-0342             
1 49208U 21083Y   25324.03484590 -.00000025  00000+0 -92491-4 0  9993
2 49208  87.9186 316.1462 0001969  88.4413 271.6946 13.20773350209175
ONEWEB-0343             
1 49209U 21083Z   25324.18509547  .00000103  00000+0  22742-3 0  9996
2 49209  87.9211  16.9670 0002100  84.0465 276.0907 13.18687416202496
ONEWEB-0344             
1 49210U 21083AA  25324.16471078  .00000167  00000+0  42362-3 0  9993
2 49210  87.8988   1.8137 0001646  84.9039 275.2278 13.13470049203455
ONEWEB-0345             
1 49211U 21083AB  25324.15625111  .00000117  00000+0  28547-3 0  9996
2 49211  87.8998   1.7731 0001793  81.9384 278.1949 13.13471204203461
